{
  "type": "FeatureCollection",
  "features": [
    {
      "type": "Feature",
      "properties": {
        "norad_id": 66579,
        "name": "STARLINK-35868",
        "group": "last-30-days",
        "lat": -38.75711867836109,
        "lon": 30.633736068147638,
        "alt_km": 396.165246942257,
        "timestamp": "2025-12-07T14:37:03.994588+00:00",
        "meta_object_name": "STARLINK-35868",
        "meta_object_id": "2025-268Y",
        "meta_epoch": "2025-12-06T22:00:01.999584",
        "meta_mean_motion": 15.60628559,
        "meta_eccentricity": 0.00017184,
        "meta_inclination": 42.9996,
        "meta_ra_of_asc_node": 155.2494,
        "meta_arg_of_pericenter": 272.2539,
        "meta_mean_anomaly": 43.3634,
        "meta_ephemeris_type": 0,
        "meta_classification_type": "U",
        "meta_norad_cat_id": 66579,
        "meta_element_set_no": 999,
        "meta_rev_at_epoch": 373,
        "meta_bstar": -0.025836523,
        "meta_mean_motion_dot": -0.01939036,
        "meta_mean_motion_ddot": 0,
        "tle_line1": "1 66579U 25268Y   25340.91668981 -.01939036  00000+0 -25837-1 0  9996",
        "tle_line2": "2 66579  42.9996 155.2494 0001718 272.2539  43.3634 15.60628559  3734"
      },
      "geometry": {
        "type": "Point",
        "coordinates": [
          30.633736068147638,
          -38.75711867836109
        ]
      }
    },
    {
      "type": "Feature",
      "properties": {
        "norad_id": 66580,
        "name": "STARLINK-35872",
        "group": "last-30-days",
        "lat": -39.39730767401067,
        "lon": 32.955967393289086,
        "alt_km": 396.22747915922537,
        "timestamp": "2025-12-07T14:37:03.994598+00:00",
        "meta_object_name": "STARLINK-35872",
        "meta_object_id": "2025-268Z",
        "meta_epoch": "2025-12-06T22:00:01.999584",
        "meta_mean_motion": 15.60633191,
        "meta_eccentricity": 0.00016358,
        "meta_inclination": 42.9995,
        "meta_ra_of_asc_node": 155.2451,
        "meta_arg_of_pericenter": 272.6429,
        "meta_mean_anomaly": 44.8873,
        "meta_ephemeris_type": 0,
        "meta_classification_type": "U",
        "meta_norad_cat_id": 66580,
        "meta_element_set_no": 999,
        "meta_rev_at_epoch": 373,
        "meta_bstar": -0.025880895,
        "meta_mean_motion_dot": -0.01942217,
        "meta_mean_motion_ddot": 0,
        "tle_line1": "1 66580U 25268Z   25340.91668981 -.01942217  00000+0 -25881-1 0  9992",
        "tle_line2": "2 66580  42.9995 155.2451 0001635 272.6429  44.8873 15.60633191  3737"
      },
      "geometry": {
        "type": "Point",
        "coordinates": [
          32.955967393289086,
          -39.39730767401067
        ]
      }
    },
    {
      "type": "Feature",
      "properties": {
        "norad_id": 66581,
        "name": "STARLINK-35744",
        "group": "last-30-days",
        "lat": -39.98907588748772,
        "lon": 35.31277306287834,
        "alt_km": 396.21049849293195,
        "timestamp": "2025-12-07T14:37:03.994607+00:00",
        "meta_object_name": "STARLINK-35744",
        "meta_object_id": "2025-268AA",
        "meta_epoch": "2025-12-06T22:00:01.999584",
        "meta_mean_motion": 15.60627777,
        "meta_eccentricity": 0.00017018,
        "meta_inclination": 42.9995,
        "meta_ra_of_asc_node": 155.2395,
        "meta_arg_of_pericenter": 273.7153,
        "meta_mean_anomaly": 45.7385,
        "meta_ephemeris_type": 0,
        "meta_classification_type": "U",
        "meta_norad_cat_id": 66581,
        "meta_element_set_no": 999,
        "meta_rev_at_epoch": 368,
        "meta_bstar": -0.025852711,
        "meta_mean_motion_dot": -0.01940042,
        "meta_mean_motion_ddot": 0,
        "tle_line1": "1 66581U 25268AA  25340.91668981 -.01940042  00000+0 -25853-1 0  9996",
        "tle_line2": "2 66581  42.9995 155.2395 0001701 273.7153  45.7385 15.60627777  3680"
      },
      "geometry": {
        "type": "Point",
        "coordinates": [
          35.31277306287834,
          -39.98907588748772
        ]
      }
    },
    {
      "type": "Feature",
      "properties": {
        "norad_id": 66582,
        "name": "STARLINK-35746",
        "group": "last-30-days",
        "lat": -40.53373867998896,
        "lon": 37.71669487466607,
        "alt_km": 396.246136917508,
        "timestamp": "2025-12-07T14:37:03.994619+00:00",
        "meta_object_name": "STARLINK-35746",
        "meta_object_id": "2025-268AB",
        "meta_epoch": "2025-12-06T22:00:01.999584",
        "meta_mean_motion": 15.60628699,
        "meta_eccentricity": 0.00016351,
        "meta_inclination": 42.9997,
        "meta_ra_of_asc_node": 155.2346,
        "meta_arg_of_pericenter": 273.562,
        "meta_mean_anomaly": 47.8079,
        "meta_ephemeris_type": 0,
        "meta_classification_type": "U",
        "meta_norad_cat_id": 66582,
        "meta_element_set_no": 999,
        "meta_rev_at_epoch": 373,
        "meta_bstar": -0.025849441,
        "meta_mean_motion_dot": -0.01939839,
        "meta_mean_motion_ddot": 0,
        "tle_line1": "1 66582U 25268AB  25340.91668981 -.01939839  00000+0 -25849-1 0  9994",
        "tle_line2": "2 66582  42.9997 155.2346 0001635 273.5620  47.8079 15.60628699  3735"
      },
      "geometry": {
        "type": "Point",
        "coordinates": [
          37.71669487466607,
          -40.53373867998896
        ]
      }
    },
    {
      "type": "Feature",
      "properties": {
        "norad_id": 66583,
        "name": "STARLINK-35941",
        "group": "last-30-days",
        "lat": -41.0275005072585,
        "lon": 40.15939952806244,
        "alt_km": 396.15597939308736,
        "timestamp": "2025-12-07T14:37:03.994629+00:00",
        "meta_object_name": "STARLINK-35941",
        "meta_object_id": "2025-268AC",
        "meta_epoch": "2025-12-06T22:00:01.999584",
        "meta_mean_motion": 15.60629747,
        "meta_eccentricity": 0.00016903,
        "meta_inclination": 42.9996,
        "meta_ra_of_asc_node": 155.2298,
        "meta_arg_of_pericenter": 269.8431,
        "meta_mean_anomaly": 53.4415,
        "meta_ephemeris_type": 0,
        "meta_classification_type": "U",
        "meta_norad_cat_id": 66583,
        "meta_element_set_no": 999,
        "meta_rev_at_epoch": 373,
        "meta_bstar": -0.025839795,
        "meta_mean_motion_dot": -0.01939311,
        "meta_mean_motion_ddot": 0,
        "tle_line1": "1 66583U 25268AC  25340.91668981 -.01939311  00000+0 -25840-1 0  9991",
        "tle_line2": "2 66583  42.9996 155.2298 0001690 269.8431  53.4415 15.60629747  3732"
      },
      "geometry": {
        "type": "Point",
        "coordinates": [
          40.15939952806244,
          -41.0275005072585
        ]
      }
    },
    {
      "type": "Feature",
      "properties": {
        "norad_id": 66584,
        "name": "STARLINK-35939",
        "group": "last-30-days",
        "lat": -41.46740347684178,
        "lon": 42.62900730048529,
        "alt_km": 396.1467821850392,
        "timestamp": "2025-12-07T14:37:03.994640+00:00",
        "meta_object_name": "STARLINK-35939",
        "meta_object_id": "2025-268AD",
        "meta_epoch": "2025-12-06T22:00:01.999584",
        "meta_mean_motion": 15.60626363,
        "meta_eccentricity": 0.00017669,
        "meta_inclination": 42.9996,
        "meta_ra_of_asc_node": 155.2255,
        "meta_arg_of_pericenter": 273.1119,
        "meta_mean_anomaly": 52.0929,
        "meta_ephemeris_type": 0,
        "meta_classification_type": "U",
        "meta_norad_cat_id": 66584,
        "meta_element_set_no": 999,
        "meta_rev_at_epoch": 373,
        "meta_bstar": -0.025815591,
        "meta_mean_motion_dot": -0.01937542,
        "meta_mean_motion_ddot": 0,
        "tle_line1": "1 66584U 25268AD  25340.91668981 -.01937542  00000+0 -25816-1 0  9999",
        "tle_line2": "2 66584  42.9996 155.2255 0001766 273.1119  52.0929 15.60626363  3737"
      },
      "geometry": {
        "type": "Point",
        "coordinates": [
          42.62900730048529,
          -41.46740347684178
        ]
      }
    },
    {
      "type": "Feature",
      "properties": {
        "norad_id": 66585,
        "name": "STARLINK-35963",
        "group": "last-30-days",
        "lat": -41.8536175121603,
        "lon": 45.12997377661244,
        "alt_km": 396.24920925064635,
        "timestamp": "2025-12-07T14:37:03.994649+00:00",
        "meta_object_name": "STARLINK-35963",
        "meta_object_id": "2025-268AE",
        "meta_epoch": "2025-12-06T22:00:01.999584",
        "meta_mean_motion": 15.60633263,
        "meta_eccentricity": 0.00016654,
        "meta_inclination": 42.9996,
        "meta_ra_of_asc_node": 155.2208,
        "meta_arg_of_pericenter": 274.7221,
        "meta_mean_anomaly": 52.3972,
        "meta_ephemeris_type": 0,
        "meta_classification_type": "U",
        "meta_norad_cat_id": 66585,
        "meta_element_set_no": 999,
        "meta_rev_at_epoch": 373,
        "meta_bstar": -0.025940391,
        "meta_mean_motion_dot": -0.01946173,
        "meta_mean_motion_ddot": 0,
        "tle_line1": "1 66585U 25268AE  25340.91668981 -.01946173  00000+0 -25940-1 0  9998",
        "tle_line2": "2 66585  42.9996 155.2208 0001665 274.7221  52.3972 15.60633263  3733"
      },
      "geometry": {
        "type": "Point",
        "coordinates": [
          45.12997377661244,
          -41.8536175121603
        ]
      }
    }
  ]
}